OBJECT_NAME,OBJECT_ID,EPOCH,MEAN_MOTION,ECCENTRICITY,INCLINATION,RA_OF_ASC_NODE,ARG_OF_PERICENTER,MEAN_ANOMALY,EPHEMERIS_TYPE,CLASSIFICATION_TYPE,NORAD_CAT_ID,ELEMENT_SET_NO,REV_AT_EPOCH,BSTAR,MEAN_MOTION_DOT,MEAN_MOTION_DDOT
STARLINK-4417,2022-084M,2026-07-12T18:05:25.891296,15.05675731,.000147,97.2835,252.4765,74.5215,285.6175,0,U,53200,999,21885,-.46298E-3,-.6734E-4,0
STARLINK-4405,2022-084N,2026-07-12T20:00:01.999008,15.53760526,.0001429,97.6012,257.4056,83.1994,311.9985,0,U,53201,999,589,-.14842E-1,-.866826E-2,0
STARLINK-4411,2022-084P,2026-07-12T17:21:33.128640,15.05657271,.0000612,97.2823,252.5058,118.2404,241.8885,0,U,53202,999,21819,.34978E-4,.449E-5,0
STARLINK-4409,2022-084Q,2026-07-12T17:17:33.811008,15.05657348,.0000707,97.2825,252.4927,100.5019,259.6288,0,U,53203,999,21819,.3034E-4,.382E-5,0
STARLINK-4410,2022-084R,2026-07-12T20:00:01.999008,15.45572281,.0002415,97.6013,255.8119,105.6683,139.3244,0,U,53204,999,589,-.33252E-1,-.1450394E-1,0
STARLINK-4397,2022-084S,2026-07-12T17:09:35.421120,15.05658305,.000185,97.2844,252.4947,114.0965,246.0457,0,U,53205,999,21819,.66072E-4,.897E-5,0
STARLINK-4408,2022-084T,2026-07-12T20:00:01.999008,15.08100908,.0001032,97.2839,252.5850,102.1328,114.4379,0,U,53206,999,582,-.11554E-2,-.17823E-3,0
STARLINK-4413,2022-084U,2026-07-12T16:35:44.221056,15.05654681,.0001856,97.2845,251.2924,98.5112,261.6326,0,U,53207,999,21811,-.69694E-5,-.157E-5,0
STARLINK-4425,2022-084V,2026-07-12T18:07:26.690592,15.05654212,.0001826,97.2835,251.4359,84.2572,275.8864,0,U,53208,999,21812,.24423E-4,.296E-5,0
STARLINK-4423,2022-084W,2026-07-12T16:55:41.248128,15.05654486,.0001964,97.2841,251.4303,87.6722,272.4730,0,U,53209,999,21812,.54588E-4,.732E-5,0
STARLINK-4427,2022-084X,2026-07-12T18:03:27.256320,15.05656666,.0001788,97.2830,251.3843,158.3997,201.7307,0,U,53210,999,21866,-.69619E-5,-.157E-5,0
STARLINK-4416,2022-084Z,2026-07-12T17:13:34.413024,15.05659439,.0000844,97.2838,252.4817,157.4422,202.6843,0,U,53212,999,21818,.32138E-4,.408E-5,0
STARLINK-4414,2022-084AA,2026-07-12T17:27:34.944192,15.05661691,.0001657,97.2840,251.3752,102.6446,257.4967,0,U,53213,999,21864,-.18031E-3,-.2658E-4,0
STARLINK-4353,2022-084AB,2026-07-12T16:19:46.968672,15.05657051,.000187,97.2834,251.3095,149.7755,210.3581,0,U,53214,999,21811,-.2689E-4,-.444E-5,0
STARLINK-4335,2022-084AC,2026-07-12T16:49:39.112032,15.05654701,.0001389,97.2851,252.4778,102.9160,257.2223,0,U,53215,999,21871,.39349E-4,.512E-5,0
STARLINK-4376,2022-084AD,2026-07-12T17:39:32.435712,15.05659073,.0001111,97.2829,251.3775,74.2128,285.9222,0,U,53216,999,21812,-.69611E-4,-.1061E-4,0
STARLINK-4384,2022-084AF,2026-07-12T18:13:30.304992,15.04827610,.0000826,97.3100,252.6712,102.6943,257.4377,0,U,53218,999,21872,-.17433E-4,-.302E-5,0
STARLINK-4373,2022-084AG,2026-07-12T16:57:36.665568,15.05659164,.0001001,97.2829,252.4549,152.8203,207.3077,0,U,53219,999,21819,.94318E-4,.1305E-4,0
STARLINK-4363,2022-084AH,2026-07-12T17:43:33.523680,15.05651808,.0001712,97.2834,251.3546,114.5552,245.5854,0,U,53220,999,21864,-.62229E-5,-.146E-5,0
STARLINK-4377,2022-084AJ,2026-07-12T16:47:42.465984,15.05653956,.0001339,97.2844,251.3931,96.5723,263.5657,0,U,53221,999,21812,.42334E-4,.555E-5,0
STARLINK-4356,2022-084AM,2026-07-12T17:47:30.780672,15.05659765,.0001757,97.2835,251.3438,111.0740,249.0676,0,U,53224,999,21812,-.27662E-4,-.455E-5,0
STARLINK-4358,2022-084AN,2026-07-12T17:01:37.414848,15.05785313,.0001395,97.2836,252.4314,160.1975,199.9307,0,U,53225,999,21819,-.17852E-2,-.25814E-3,0
STARLINK-4359,2022-084AP,2026-07-12T17:23:37.332096,15.05655298,.0001614,97.2821,251.3535,109.9354,250.2047,0,U,53226,999,21812,.37697E-4,.488E-5,0
STARLINK-4366,2022-084AQ,2026-07-12T16:33:41.978016,15.05656588,.0001485,97.2805,252.4401,129.0083,231.1277,0,U,53227,999,21819,-.16881E-4,-.3E-5,0
STARLINK-4365,2022-084AR,2026-07-12T17:59:29.333184,15.05660735,.000213,97.2846,251.4677,123.3002,236.8430,0,U,53228,999,21813,-.85022E-4,-.1283E-4,0
STARLINK-4367,2022-084AS,2026-07-12T18:17:06.439776,15.05696067,.000109,97.3109,252.6165,125.7338,234.3991,0,U,53229,999,21820,-.35472E-3,-.5177E-4,0
STARLINK-4364,2022-084AT,2026-07-12T17:45:28.877184,15.05654460,.0001567,97.2827,252.5393,108.2891,251.8508,0,U,53230,999,21820,.74284E-5,.51E-6,0
STARLINK-4370,2022-084AU,2026-07-12T18:01:25.707072,15.05661093,.0002253,97.2836,252.5126,119.7366,240.4086,0,U,53231,999,21820,-.76447E-4,-.1159E-4,0
STARLINK-4371,2022-084AV,2026-07-12T15:43:54.362784,15.05660291,.0002348,97.2820,251.2732,121.1061,239.0398,0,U,53232,999,21811,-.56039E-5,-.137E-5,0
STARLINK-4372,2022-084AW,2026-07-12T17:07:38.419104,15.05656680,.0001613,97.2822,251.3392,114.3391,245.8005,0,U,53233,999,21812,.55775E-4,.749E-5,0
STARLINK-4368,2022-084AX,2026-07-12T20:00:01.999008,15.49132611,.0001328,97.6022,256.6306,83.3648,152.3109,0,U,53234,999,582,-.15381E-1,-.769156E-2,0
CSS (WENTIAN),2022-085A,2026-07-12T07:55:55.916256,15.58035041,.00024282,41.4686,169.1964,290.9815,69.0763,0,U,53239,999,28823,.14700842E-4,.806E-5,0
STARLINK-4056,2022-086A,2026-07-12T18:21:27.654624,15.08832452,.0001027,53.1617,357.3804,98.2913,261.8195,0,U,53242,999,22019,.86211E-5,-.151E-5,0
STARLINK-4047,2022-086B,2026-07-12T20:00:01.999008,15.20045329,.0000505,53.1608,1.2956,99.4704,313.6028,0,U,53243,999,583,.26558E-2,.58136E-3,0
STARLINK-4125,2022-086C,2026-07-12T20:00:01.999008,15.29339212,.000116,53.1639,1.1069,66.6087,141.8974,0,U,53244,999,583,.53021E-3,.14967E-3,0
STARLINK-4131,2022-086E,2026-07-12T20:00:01.999008,15.29045131,.0001985,53.1610,1.1510,85.9491,80.5628,0,U,53246,999,573,.36765E-2,.106239E-2,0
STARLINK-4061,2022-086F,2026-07-12T20:18:04.550400,15.08831714,.0001225,53.1613,357.2098,84.2574,275.8557,0,U,53247,999,22020,.58578E-4,.644E-5,0
STARLINK-4135,2022-086G,2026-07-12T20:00:01.999008,15.13914500,.0000762,53.1593,357.1389,131.6979,246.6658,0,U,53248,999,583,.343E-2,.63098E-3,0
STARLINK-4128,2022-086H,2026-07-12T20:00:01.999008,15.31678493,.0001219,53.1598,349.4198,87.1221,183.6104,0,U,53249,999,573,.14745E-2,.45641E-3,0
STARLINK-4059,2022-086J,2026-07-12T20:00:01.999008,15.29538880,.0001713,53.1596,351.0411,82.8216,55.1601,0,U,53250,999,583,.39611E-2,.116406E-2,0
STARLINK-4129,2022-086K,2026-07-12T17:34:51.728160,15.29351401,.000106,53.1606,350.1132,83.1591,276.9530,0,U,53251,999,21997,.47143E-4,.1005E-4,0
STARLINK-4132,2022-086L,2026-07-12T17:35:36.684672,15.31717712,.0000845,53.1605,350.0262,52.8060,307.3018,0,U,53252,999,21999,.12506E-3,.352E-4,0
STARLINK-4133,2022-086M,2026-07-12T20:00:01.999008,15.31654815,.0001081,53.1746,349.7888,65.0382,76.8594,0,U,53253,999,548,.11609E-2,.35781E-3,0
STARLINK-4134,2022-086N,2026-07-12T16:50:46.076352,15.08840770,.0001225,53.1605,352.6851,82.1788,277.9343,0,U,53254,999,21995,-.14596E-4,-.52E-5,0
STARLINK-4142,2022-086P,2026-07-12T19:38:57.757920,15.08830602,.0001198,53.1621,352.1451,99.4975,260.6152,0,U,53255,999,21995,.36486E-4,.293E-5,0
STARLINK-4147,2022-086Q,2026-07-12T19:44:15.646848,15.08835161,.0001201,53.1611,352.1341,82.7362,277.3766,0,U,53256,999,21995,-.40472E-5,-.352E-5,0
STARLINK-4144,2022-086R,2026-07-12T16:12:17.330112,15.08832264,.0001249,53.1619,352.7940,91.2545,268.8589,0,U,53257,999,21993,.56316E-4,.608E-5,0
STARLINK-4127,2022-086S,2026-07-12T19:33:39.676320,15.08832643,.0001182,53.1609,352.1653,95.0039,265.1087,0,U,53258,999,21995,.7701E-4,.938E-5,0
STARLINK-4140,2022-086T,2026-07-12T20:05:23.343072,15.08838429,.0001178,53.1613,351.7057,96.7415,263.3710,0,U,53259,999,21996,-.16583E-4,-.552E-5,0
STARLINK-4062,2022-086V,2026-07-12T20:00:01.999008,15.27688384,.000024,53.1611,351.1419,104.5538,221.5880,0,U,53261,999,568,.40222E-2,.111611E-2,0
STARLINK-4085,2022-086W,2026-07-12T20:00:01.999008,15.28889401,.0000244,53.1613,351.0754,117.5234,203.0368,0,U,53262,999,583,.39392E-2,.113423E-2,0
STARLINK-4130,2022-086X,2026-07-12T16:09:40.483872,15.29355770,.0001392,53.1602,350.1419,97.7424,262.3734,0,U,53263,999,21997,.71944E-4,.172E-4,0
STARLINK-3950,2022-086Y,2026-07-12T20:00:01.999008,15.23131250,.0001301,53.1591,351.5268,72.0084,36.5892,0,U,53264,999,583,.30019E-2,.7215E-3,0
STARLINK-4097,2022-086Z,2026-07-12T20:00:01.999008,15.22147931,.0000706,53.1612,351.3183,52.1651,243.8104,0,U,53265,999,583,.31761E-2,.74184E-3,0
STARLINK-4058,2022-086AA,2026-07-12T20:00:01.999008,15.27660935,.0001356,53.1605,351.0855,33.8692,1.0653,0,U,53266,999,583,.38855E-2,.107659E-2,0
STARLINK-4060,2022-086AB,2026-07-12T20:00:01.999008,15.27304918,.0001733,53.1591,351.1181,57.6800,20.2332,0,U,53267,999,583,.29787E-2,.81269E-3,0
STARLINK-4109,2022-086AC,2026-07-12T19:49:38.978112,15.26014912,.0001076,53.1621,349.7919,85.8295,274.2827,0,U,53268,999,21999,.29074E-4,.415E-5,0
STARLINK-4122,2022-086AG,2026-07-12T16:44:04.532352,15.35403766,.0000957,53.1624,339.7692,90.5175,269.5938,0,U,53272,999,22011,.21742E-4,.378E-5,0
STARLINK-4051,2022-086AH,2026-07-12T15:28:21.266112,15.33531202,.0001723,53.1618,340.3456,108.5495,251.5694,0,U,53273,999,22009,.6656E-4,.1815E-4,0
STARLINK-4050,2022-086AJ,2026-07-12T15:21:13.657824,15.33405958,.0001737,53.1605,340.1923,272.5202,87.5602,0,U,53274,999,22010,-.61102E-3,-.20323E-3,0
STARLINK-4179,2022-086AK,2026-07-12T20:00:01.999008,15.31868871,.0000728,53.1594,340.1297,52.8257,308.0662,0,U,53275,999,573,.31684E-2,.99803E-3,0
STARLINK-4174,2022-086AL,2026-07-12T20:00:01.999008,15.32446682,.0001216,53.1592,339.3764,56.1953,293.2566,0,U,53276,999,538,.32524E-2,.104397E-2,0
STARLINK-4178,2022-086AM,2026-07-12T20:00:01.999008,15.25183017,.0001557,53.1604,340.2129,58.6534,318.8301,0,U,53277,999,573,.35336E-2,.90591E-3,0
STARLINK-4180,2022-086AN,2026-07-12T16:58:47.635392,15.31703343,.00011,53.1603,340.8062,73.9924,286.1198,0,U,53278,999,22009,.23275E-4,.357E-5,0
STARLINK-4169,2022-086AQ,2026-07-12T20:00:01.999008,15.21287813,.0000116,53.1594,295.8546,61.2202,207.4346,0,U,53280,999,583,.14781E-2,.33297E-3,0
